[{"OBJECT_NAME":"DONGPO 08","OBJECT_ID":"2022-167E","EPOCH":"2026-03-09T22:57:52.742880","MEAN_MOTION":15.31542505,"ECCENTRICITY":0.00092155,"INCLINATION":97.6764,"RA_OF_ASC_NODE":233.3854,"ARG_OF_PERICENTER":153.9158,"MEAN_ANOMALY":206.2548,"EPHEMERIS_TYPE":0,"CLASSIFICATION_TYPE":"U","NORAD_CAT_ID":54686,"ELEMENT_SET_NO":999,"REV_AT_EPOCH":18012,"BSTAR":0.0004734784,"MEAN_MOTION_DOT":0.0001437,"MEAN_MOTION_DDOT":0},{"OBJECT_NAME":"STARLINK-35343","OBJECT_ID":"2026-003A","EPOCH":"2026-03-09T11:53:22.093440","MEAN_MOTION":15.27593914,"ECCENTRICITY":0.00016716,"INCLINATION":43.0002,"RA_OF_ASC_NODE":228.2092,"ARG_OF_PERICENTER":271.3939,"MEAN_ANOMALY":88.6721,"EPHEMERIS_TYPE":0,"CLASSIFICATION_TYPE":"U","NORAD_CAT_ID":67334,"ELEMENT_SET_NO":999,"REV_AT_EPOCH":879,"BSTAR":0.0012290218,"MEAN_MOTION_DOT":0.00033727,"MEAN_MOTION_DDOT":0}]
